[{"OBJECT_NAME":"TRANSPORTER-10 OBJECT AG","OBJECT_ID":"2024-043AG","EPOCH":"2026-03-09T22:12:45.387648","MEAN_MOTION":15.30759727,"ECCENTRICITY":0.00093005,"INCLINATION":97.5471,"RA_OF_ASC_NODE":205.7101,"ARG_OF_PERICENTER":226.5958,"MEAN_ANOMALY":133.4509,"EPHEMERIS_TYPE":0,"CLASSIFICATION_TYPE":"U","NORAD_CAT_ID":59128,"ELEMENT_SET_NO":999,"REV_AT_EPOCH":11192,"BSTAR":0.00032170115,"MEAN_MOTION_DOT":9.498e-5,"MEAN_MOTION_DDOT":0},{"OBJECT_NAME":"STARLINK-35852","OBJECT_ID":"2025-283M","EPOCH":"2026-03-09T07:07:03.541728","MEAN_MOTION":15.30180185,"ECCENTRICITY":0.00013794,"INCLINATION":53.1614,"RA_OF_ASC_NODE":26.0141,"ARG_OF_PERICENTER":72.4217,"MEAN_ANOMALY":287.6935,"EPHEMERIS_TYPE":0,"CLASSIFICATION_TYPE":"U","NORAD_CAT_ID":66889,"ELEMENT_SET_NO":999,"REV_AT_EPOCH":1578,"BSTAR":0.0006888838,"MEAN_MOTION_DOT":0.00020086,"MEAN_MOTION_DDOT":0}]
